CHUBUSAT-3              
1 41339U 16012C   19292.07514032  .00000322  00000-0  18179-4 0  9992
2 41339  31.0095  84.9223 0013616 243.7354 116.1883 15.00366680201302
HORYU-4                 
1 41340U 16012D   19291.77504351  .00000461  00000-0  28179-4 0  9998
2 41340  31.0050  77.0520 0014130 260.8653  99.0384 15.01334521201374
OUFTI-1                 
1 41458U 16025C   19292.04699380  .00000569  00000-0  33381-4 0  9990
2 41458  98.1004  25.1143 0164470 305.9337  52.6722 15.06088465190988
E-ST@R-II               
1 41459U 16025D   19292.09321256 -.00000015  00000-0  40537-5 0  9999
2 41459  98.1006  24.7533 0165722 307.3205  51.3014 15.05704635190961
AAUSAT 4                
1 41460U 16025E   19291.84629259  .00001016  00000-0  55009-4 0  9997
2 41460  98.0959  26.0515 0155372 299.5324  59.0430 15.07694961191070
AIST-2D (RS-48)         
1 41465U 16026B   19292.09802905  .00001339  00000-0  42874-4 0  9996
2 41465  97.1739 184.0956 0012918  47.0309  62.7644 15.34039872194268
SAMSAT-218D             
1 41466U 16026C   19292.14626198  .00005479  00000-0  12454-3 0  9990
2 41466  97.1911 194.1556 0009080  26.7607  79.3412 15.43379503194894
NUSAT-1 (FRESCO)        
1 41557U 16033B   19292.16690788  .00001096  00000-0  43505-4 0  9990
2 41557  97.4145  18.9486 0012700 219.7865 140.2444 15.27449266188785
NUSAT-2 (BATATA)        
1 41558U 16033C   19292.17945249  .00001187  00000-0  44295-4 0  9995
2 41558  97.4178  20.4086 0011753 218.9873 141.0521 15.29364663188855
CARTOSAT-2C             
1 41599U 16040A   19292.05900856  .00000218  00000-0  13617-4 0  9998
2 41599  97.4854 349.3432 0013361 340.4605 108.8283 15.19230940184299
SATHYABAMASAT           
1 41600U 16040B   19291.85056218  .00001266  00000-0  55487-4 0  9997
2 41600  97.3563 352.1760 0012758 327.9866  32.0595 15.23755468184568
LAPAN-A3                
1 41603U 16040E   19292.04696741 -.00000010  00000-0  26776-5 0  9990
2 41603  97.3470 347.6477 0012923 338.1582 107.5098 15.19752176184323
BIROS                   
1 41604U 16040F   19291.77144888  .00000337  00000-0  17832-4 0  9993
2 41604  97.3508 350.3674 0011258 323.8310  36.2163 15.21809531184463
SWAYAM                  
1 41607U 16040J   19291.83842609  .00001179  00000-0  52197-4 0  9997
2 41607  97.3524 351.5392 0012290 327.7942  32.2543 15.23562346184476
BEESAT-4                
1 41619U 16040W   19291.89900599  .00001110  00000-0  49599-4 0  9996
2 41619  97.3545 351.7743 0010068 320.4650  39.5851 15.23376015172465
3CAT-2                  
1 41732U 16051B   19292.00262822  .00000887  00000-0  36067-4 0  9994
2 41732  97.3698 207.6571 0014114 132.5392 286.9225 15.27083019176751
PRATHAM                 
1 41783U 16059A   19291.95506856  .00000035  00000-0  16069-4 0  9994
2 41783  98.0537 348.7495 0033480   1.8944 358.2379 14.63014468163421
ALSAT 1N                
1 41789U 16059G   19292.04431015  .00000059  00000-0  20154-4 0  9991
2 41789  98.0570 351.1015 0028130 351.0645   9.0057 14.64268259163552
LISHUI 1-01             
1 41845U 16066E   19292.06151581  .00004660  00000-0  62017-3 0  9996
2 41845  98.7489 355.0969 0301046 176.5447 183.7937 14.53387524155016
CARTOSAT-2D             
1 41948U 17008A   19291.81376877  .00000383  00000-0  21331-4 0  9999
2 41948  97.3815 349.5291 0008925 113.4119 246.8056 15.19253435148123
NAYIF-1 (EO-88)         
1 42017U 17008BX  19291.75702910  .00001226  00000-0  50754-4 0  9999
2 42017  97.3911 357.5313 0007934  98.0601 262.1538 15.25799311148531
NSIGHT                  
1 42726U 98067MF  19291.77276908  .00032545  00000-0  20228-3 0  9995
2 42726  51.6336  42.1953 0005036 298.9325  61.1170 15.76655829137048
ZHUHAI-1 02 (CAS-4B)    
1 42759U 17034B   19292.22579861  .00000134  00000-0  21740-4 0  9991
2 42759  43.0193 277.7595 0012712 302.4854 240.5925 15.09656431129357
ZHUHAI-1 01 (CAS-4A)    
1 42761U 17034D   19292.15932198  .00000232  00000-0  27624-4 0  9998
2 42761  43.0188 277.5813 0013136 304.4277 111.7358 15.09734988129349
UCLSAT                  
1 42765U 17036A   19291.88758564  .00001028  00000-0  46645-4 0  9994
2 42765  97.3373 347.2073 0012196 152.9477 207.2398 15.22957767129068
NIUSAT                  
1 42766U 17036B   19291.72453832  .00000802  00000-0  38812-4 0  9994
2 42766  97.3370 345.1646 0016550 147.5017 212.7242 15.21281254128784
CARTOSAT-2E             
1 42767U 17036C   19291.96079245  .00000391  00000-0  21765-4 0  9995
2 42767  97.4593 349.3395 0008752 157.1696 202.9930 15.19247444128713
LITUANICASAT-2          
1 42768U 17036D   19291.79154506  .00001669  00000-0  73407-4 0  9990
2 42768  97.3415 346.7961 0016026 145.8852 214.3418 15.23149804128890
AALTO-1                 
1 42775U 17036L   19291.14175637  .00000641  00000-0  31463-4 0  9990
2 42775  97.3356 344.9397 0014846 148.5675 211.6451 15.21480029128674
URSA MAIOR              
1 42776U 17036M   19291.22304101  .00000709  00000-0  34339-4 0  9990
2 42776  97.3366 345.2074 0014691 148.1775 212.0352 15.21625547128690
COMPASS 2               
1 42777U 17036N   19291.73879773  .00001325  00000-0  58873-4 0  9993
2 42777  97.3410 347.2108 0013468 146.1568 214.0532 15.23178449128845
MAX VALIER SAT          
1 42778U 17036P   19291.74165288  .00000752  00000-0  35676-4 0  9993
2 42778  97.3409 346.6392 0013268 149.4912 210.7099 15.22187429128803
PEGASUS                 
1 42784U 17036V   19291.86667406  .00000913  00000-0  42077-4 0  9994
2 42784  97.3377 346.9672 0012719 153.9686 206.2193 15.22694708128859
NUDTSAT                 
1 42787U 17036Y   19291.91548560  .00001632  00000-0  70684-4 0  9996
2 42787  97.3426 347.9067 0010867 150.2961 209.8895 15.23757122128752
SUCHAI                  
1 42788U 17036Z   19291.11662346  .00001100  00000-0  49438-4 0  9991
2 42788  97.3383 346.6189 0012270 155.2469 204.9359 15.23144889128834
SKCUBE                  
1 42789U 17036AA  19291.92927865  .00001012  00000-0  45865-4 0  9993
2 42789  97.3378 347.3307 0012219 152.6830 207.5052 15.23030992128877
VZLUSAT-1               
1 42790U 17036AB  19291.11465823  .00001435  00000-0  62519-4 0  9991
2 42790  97.3397 347.1208 0011763 153.9160 206.2673 15.23745424128789
ROBUSTA-1B              
1 42792U 17036AD  19291.84642765  .00001068  00000-0  48017-4 0  9994
2 42792  97.3380 347.4295 0011777 153.2160 206.9687 15.23208423128886
D-SAT                   
1 42794U 17036AF  19291.20148563  .00000280  00000-0  29345-4 0  9991
2 42794  97.5265 330.4760 0128011  96.5749 265.0060 14.91148645126447
NORSAT 2                
1 42828U 17042D   19291.77988965  .00000476  00000-0  53013-4 0  9992
2 42828  97.5514 179.9927 0014996  18.2166 341.9588 14.91340668123156
TECHNOSAT               
1 42829U 17042E   19291.82126753  .00000131  00000-0  18642-4 0  9995
2 42829  97.5469 179.5138 0014768  19.3541 340.8236 14.91010046123132
2017-042F               
1 42830U 17042F   19291.93297379  .00000482  00000-0  52898-4 0  9992
2 42830  97.5519 180.4951 0014867  14.3185 345.8452 14.91919917123199
FLYING LAPTOP           
1 42831U 17042G   19292.14043373  .00000012  00000-0  65476-5 0  9996
2 42831  97.5478 179.9068 0014663  18.6710 341.5044 14.91043149123185
CORVUS BC2              
1 42846U 17042X   19291.73961813 -.00000013  00000-0  39827-5 0  9997
2 42846  97.5490 180.7686 0010050  17.0469 343.1087 14.92011580123215
CORVUS BC1              
1 42847U 17042Y   19291.75171123  .00000005  00000-0  57034-5 0  9997
2 42847  97.5492 180.9069 0009677  16.7617 343.3921 14.92111907123212
SIMPL                   
1 42983U 98067NF  19291.99514822  .00003817  00000-0  53364-4 0  9992
2 42983  51.6388  85.9175 0003745 218.9564 141.1159 15.59583980112423
CZ-4C R/B               
1 43012U 17072C   19291.55623544  .00000015  00000-0  14603-4 0  9997
2 43012  98.6976 267.5783 0128498  50.1539 311.0879 14.56057195102274
RADFXSAT (FOX-1B)       
1 43017U 17073E   19291.81599205  .00000347  00000-0  32043-4 0  9994
2 43017  97.7209 208.3938 0259091 120.5562 242.1492 14.78652264103307
EAGLESAT 1              
1 43018U 17073F   19291.21195965  .00000590  00000-0  50433-4 0  9997
2 43018  97.7200 208.0428 0257385 121.4842 241.1800 14.79164494103097
ECAMSAT                 
1 43019U 98067NG  19291.88629621  .00006916  00000-0  81924-4 0  9991
2 43019  51.6403  79.2451 0004285 203.3725 156.7075 15.62524162194826
INS-1C                  
1 43116U 18004F   19292.15012930  .00000971  00000-0  43887-4 0  9993
2 43116  97.4819 359.7285 0009891 167.1896 192.9594 15.23337964 98143
FLOCK 3P'-3             
1 43119U 18004J   19291.95423906  .00000711  00000-0  33270-4 0  9999
2 43119  97.4797 359.0712 0010497 174.6724 185.4626 15.22990393 98082
FLOCK 3P'-2             
1 43120U 18004K   19292.04232690  .00000512  00000-0  24871-4 0  9996
2 43120  97.4799 359.1151 0010444 174.6002 185.5349 15.22867017 98095
FLOCK 3P'-1             
1 43121U 18004L   19291.78879463  .00001706  00000-0  73923-4 0  9990
2 43121  97.4797 359.1237 0010240 174.5759 185.5591 15.23736604 98009
FLOCK 3P'-4             
1 43122U 18004M   19291.77844211  .00000602  00000-0  28722-4 0  9994
2 43122  97.4807 358.8839 0010214 177.1559 182.9737 15.22856214 98051
MICROMAS-2A             
1 43131U 18004W   19291.97950156  .00001437  00000-0  61473-4 0  9999
2 43131  97.4778 359.8447 0009518 174.4441 185.6903 15.24435916 98148
PICSAT                  
1 43132U 18004X   19291.13272572  .00001153  00000-0  50843-4 0  9991
2 43132  97.4769 358.6527 0009719 178.9455 181.1804 15.23806081 97999
2018-004Z               
1 43134U 18004Z   19291.14945542  .00000956  00000-0  42838-4 0  9993
2 43134  97.4767 358.6263 0009492 179.2970 180.8282 15.23674857 97990
FOX-1D (AO-92)          
1 43137U 18004AC  19291.26606630  .00000860  00000-0  38855-4 0  9999
2 43137  97.4758 358.7303 0009216 179.9460 180.1779 15.23646361 98011
